OBJECT_NAME,OBJECT_ID,EPOCH,MEAN_MOTION,ECCENTRICITY,INCLINATION,RA_OF_ASC_NODE,ARG_OF_PERICENTER,MEAN_ANOMALY,EPHEMERIS_TYPE,CLASSIFICATION_TYPE,NORAD_CAT_ID,ELEMENT_SET_NO,REV_AT_EPOCH,BSTAR,MEAN_MOTION_DOT,MEAN_MOTION_DDOT
STARLINK-36344,2026-025T,2026-06-19T18:07:25.129344,15.33465873,.00012161,97.2856,281.9947,251.8142,108.2969,0,U,67710,999,2166,.88998731E-3,.28786E-3,0
STARLINK-36687,2026-025U,2026-06-19T18:58:19.740000,15.33454457,.00001754,97.2841,282.1028,95.7539,264.3723,0,U,67711,999,2167,.61777494E-3,.19927E-3,0
STARLINK-36705,2026-025V,2026-06-19T18:30:54.703008,15.33464333,.0000378,97.2877,281.9738,257.7074,102.4126,0,U,67712,999,2165,.58467863E-3,.18859E-3,0
STARLINK-36708,2026-025W,2026-06-19T18:56:12.015744,15.33453378,.00011238,97.2876,281.1905,82.2171,277.9199,0,U,67713,999,2160,.51699634E-3,.16657E-3,0
STARLINK-36702,2026-025X,2026-06-19T13:45:05.984352,15.33454280,.0000712,97.2850,281.7832,106.7197,253.4124,0,U,67714,999,2162,.57659416E-3,.18591E-3,0
STARLINK-36718,2026-025Y,2026-06-19T18:11:20.304960,15.33460988,.00004138,97.2852,281.9937,229.6910,130.4297,0,U,67715,999,2165,.74437641E-3,.24045E-3,0
STARLINK-36715,2026-025Z,2026-06-19T18:54:24.745824,15.33458696,.0000287,97.2840,281.9522,17.5132,342.6121,0,U,67716,999,2165,.62934144E-3,.20306E-3,0
STARLINK-36385,2026-025AA,2026-06-19T17:47:51.082080,15.33460971,.00009711,97.2832,282.0173,88.7432,271.3922,0,U,67717,999,2165,.60907772E-3,.19649E-3,0
STARLINK-36772,2026-026A,2026-06-19T16:38:08.163456,15.33450688,.00015206,97.2838,223.7806,88.6474,271.4943,0,U,67721,999,1975,.3370981E-3,.10825E-3,0
STARLINK-36796,2026-026B,2026-06-19T21:16:06.157632,15.33466048,.00012469,97.2861,223.9809,88.2784,271.8602,0,U,67722,999,1978,.48908466E-3,.15758E-3,0
STARLINK-36369,2026-026C,2026-06-19T16:30:17.982432,15.33457157,.00001265,97.2813,223.7893,106.5134,253.6122,0,U,67723,999,1975,.3908631E-3,.12569E-3,0
STARLINK-36752,2026-026D,2026-06-19T21:08:17.301984,15.33451419,.00006948,97.2841,223.9887,155.6352,204.4924,0,U,67724,999,1978,.50939354E-3,.16409E-3,0
STARLINK-36754,2026-026E,2026-06-19T21:04:22.213632,15.33447513,.00006059,97.2844,223.9908,222.7664,137.3531,0,U,67725,999,1978,.24629591E-3,.7885E-4,0
STARLINK-36755,2026-026F,2026-06-19T16:18:33.182208,15.33447453,.00004414,97.2840,223.8013,215.3977,144.7237,0,U,67726,999,1975,.297752E-3,.955E-4,0
STARLINK-36741,2026-026G,2026-06-19T16:14:38.647680,15.33438416,.00012008,97.2850,223.8048,95.5155,264.6225,0,U,67727,999,1975,.27182284E-3,.8709E-4,0
STARLINK-36757,2026-026H,2026-06-19T20:52:37.899840,15.33445495,.00013607,97.2843,224.0038,98.2530,261.8867,0,U,67728,999,1978,.64807887E-3,.20906E-3,0
STARLINK-36751,2026-026J,2026-06-19T17:36:51.807744,15.33444033,.00016196,97.2841,223.8811,93.4475,266.6953,0,U,67729,999,1976,.50097505E-3,.16133E-3,0
STARLINK-36747,2026-026K,2026-06-19T17:40:46.698240,15.33451772,.00011003,97.2836,223.8786,90.0885,270.0484,0,U,67730,999,1976,.41894607E-3,.13477E-3,0
STARLINK-36315,2026-026L,2026-06-19T17:32:56.595840,15.33456946,.00012624,97.2826,223.8853,180.9038,179.2203,0,U,67731,999,1976,.67540942E-3,.21801E-3,0
STARLINK-36260,2026-026M,2026-06-19T17:29:01.870368,15.33447143,.0000243,97.2838,223.8893,116.2592,243.8676,0,U,67732,999,1976,.24955184E-3,.799E-4,0
STARLINK-36746,2026-026N,2026-06-19T20:33:03.149280,15.33451894,.00011829,97.2849,224.0182,114.0178,246.1188,0,U,67733,999,1978,.37922306E-3,.1219E-3,0
STARLINK-36749,2026-026P,2026-06-19T15:47:13.974432,15.33450283,.00009006,97.2848,223.8290,105.8420,254.2922,0,U,67734,999,1975,.3895041E-3,.12522E-3,0
STARLINK-36691,2026-026Q,2026-06-19T17:13:22.592640,15.33454206,.00012372,97.2842,223.9065,60.9790,299.1576,0,U,67735,999,1976,.4546416E-4,.1393E-4,0
STARLINK-36317,2026-026R,2026-06-19T15:43:19.086528,15.33447325,.00006818,97.2842,223.8349,142.7910,217.3380,0,U,67736,999,1975,.43130818E-3,.13876E-3,0
STARLINK-36330,2026-026S,2026-06-19T15:35:29.036832,15.33467607,.00010412,97.2831,223.8413,203.1006,157.0190,0,U,67737,999,1975,.46958291E-3,.15126E-3,0
STARLINK-36327,2026-026T,2026-06-19T17:05:32.643168,15.33439020,.00010943,97.2837,223.9128,100.1595,259.9771,0,U,67738,999,1976,.32509191E-3,.10433E-3,0
STARLINK-36329,2026-026U,2026-06-19T21:23:57.005664,15.33446623,.0000326,97.2841,224.1281,188.9349,171.1888,0,U,67739,999,1979,.23283313E-3,.7449E-4,0
STARLINK-36737,2026-026V,2026-06-19T17:01:37.557408,15.33455692,.00006205,97.2834,223.9141,54.7049,305.4251,0,U,67740,999,1976,.50234883E-3,.16183E-3,0
STARLINK-36740,2026-026W,2026-06-19T16:45:57.858912,15.33452015,.00006957,97.2837,223.9279,114.1309,246.0006,0,U,67741,999,1976,.4109403E-3,.13218E-3,0
STARLINK-36693,2026-026X,2026-06-19T16:57:42.812928,15.33460246,.00015617,97.2820,223.9184,95.0699,265.0722,0,U,67742,999,1976,.63373072E-3,.2045E-3,0
