STARLINK-36344          
1 67710U 26025T   26170.75515196  .00028786  00000+0  88999-3 0  9997
2 67710  97.2856 281.9947 0001216 251.8142 108.2969 15.33465873 21668
STARLINK-36687          
1 67711U 26025U   26170.79050625  .00019927  00000+0  61777-3 0  9995
2 67711  97.2841 282.1028 0000175  95.7539 264.3723 15.33454457 21673
STARLINK-36705          
1 67712U 26025V   26170.77146647  .00018859  00000+0  58468-3 0  9990
2 67712  97.2877 281.9738 0000378 257.7074 102.4126 15.33464333 21658
STARLINK-36708          
1 67713U 26025W   26170.78902796  .00016657  00000+0  51700-3 0  9993
2 67713  97.2876 281.1905 0001123  82.2171 277.9199 15.33453378 21604
STARLINK-36702          
1 67714U 26025X   26170.57298593  .00018591  00000+0  57659-3 0  9992
2 67714  97.2850 281.7832 0000712 106.7197 253.4124 15.33454280 21627
STARLINK-36718          
1 67715U 26025Y   26170.75787390  .00024045  00000+0  74438-3 0  9996
2 67715  97.2852 281.9937 0000413 229.6910 130.4297 15.33460988 21654
STARLINK-36715          
1 67716U 26025Z   26170.78778641  .00020306  00000+0  62934-3 0  9993
2 67716  97.2840 281.9522 0000287  17.5132 342.6121 15.33458696 21657
STARLINK-36385          
1 67717U 26025AA  26170.74156345  .00019649  00000+0  60908-3 0  9998
2 67717  97.2832 282.0173 0000971  88.7432 271.3922 15.33460971 21652
STARLINK-36772          
1 67721U 26026A   26170.69315004  .00010825  00000+0  33710-3 0  9995
2 67721  97.2838 223.7806 0001520  88.6474 271.4943 15.33450688 19750
STARLINK-36796          
1 67722U 26026B   26170.88618238  .00015758  00000+0  48908-3 0  9997
2 67722  97.2861 223.9809 0001246  88.2784 271.8602 15.33466048 19783
STARLINK-36369          
1 67723U 26026C   26170.68770813  .00012569  00000+0  39086-3 0  9998
2 67723  97.2813 223.7893 0000126 106.5134 253.6122 15.33457157 19754
STARLINK-36752          
1 67724U 26026D   26170.88075581  .00016409  00000+0  50939-3 0  9998
2 67724  97.2841 223.9887 0000694 155.6352 204.4924 15.33451419 19780
STARLINK-36754          
1 67725U 26026E   26170.87803488  .00007885  00000+0  24630-3 0  9990
2 67725  97.2844 223.9908 0000605 222.7664 137.3531 15.33447513 19780
STARLINK-36755          
1 67726U 26026F   26170.67955072  .00009550  00000+0  29775-3 0  9992
2 67726  97.2840 223.8013 0000441 215.3977 144.7237 15.33447453 19751
STARLINK-36741          
1 67727U 26026G   26170.67683620  .00008709  00000+0  27182-3 0  9995
2 67727  97.2850 223.8048 0001200  95.5155 264.6225 15.33438416 19759
STARLINK-36757          
1 67728U 26026H   26170.86988310  .00020906  00000+0  64808-3 0  9990
2 67728  97.2843 224.0038 0001360  98.2530 261.8867 15.33445495 19787
STARLINK-36751          
1 67729U 26026J   26170.73393296  .00016133  00000+0  50098-3 0  9993
2 67729  97.2841 223.8811 0001619  93.4475 266.6953 15.33444033 19768
STARLINK-36747          
1 67730U 26026K   26170.73665160  .00013477  00000+0  41895-3 0  9990
2 67730  97.2836 223.8786 0001100  90.0885 270.0484 15.33451772 19764
STARLINK-36315          
1 67731U 26026L   26170.73121060  .00021801  00000+0  67541-3 0  9993
2 67731  97.2826 223.8853 0001262 180.9038 179.2203 15.33456946 19764
STARLINK-36260          
1 67732U 26026M   26170.72849387  .00007990  00000+0  24955-3 0  9997
2 67732  97.2838 223.8893 0000243 116.2592 243.8676 15.33447143 19768
STARLINK-36746          
1 67733U 26026N   26170.85628645  .00012190  00000+0  37922-3 0  9990
2 67733  97.2849 224.0182 0001182 114.0178 246.1188 15.33451894 19788
STARLINK-36749          
1 67734U 26026P   26170.65780063  .00012522  00000+0  38950-3 0  9993
2 67734  97.2848 223.8290 0000900 105.8420 254.2922 15.33450283 19754
STARLINK-36691          
1 67735U 26026Q   26170.71762260  .00001393  00000+0  45464-4 0  9993
2 67735  97.2842 223.9065 0001237  60.9790 299.1576 15.33454206 19768
STARLINK-36317          
1 67736U 26026R   26170.65508202  .00013876  00000+0  43131-3 0  9998
2 67736  97.2842 223.8349 0000681 142.7910 217.3380 15.33447325 19756
STARLINK-36330          
1 67737U 26026S   26170.64964163  .00015126  00000+0  46958-3 0  9990
2 67737  97.2831 223.8413 0001041 203.1006 157.0190 15.33467607 19750
STARLINK-36327          
1 67738U 26026T   26170.71218337  .00010433  00000+0  32509-3 0  9997
2 67738  97.2837 223.9128 0001094 100.1595 259.9771 15.33439020 19764
STARLINK-36329          
1 67739U 26026U   26170.89163201  .00007449  00000+0  23283-3 0  9998
2 67739  97.2841 224.1281 0000326 188.9349 171.1888 15.33446623 19795
STARLINK-36737          
1 67740U 26026V   26170.70946247  .00016183  00000+0  50235-3 0  9991
2 67740  97.2834 223.9141 0000620  54.7049 305.4251 15.33455692 19764
STARLINK-36740          
1 67741U 26026W   26170.69858633  .00013218  00000+0  41094-3 0  9990
2 67741  97.2837 223.9279 0000695 114.1309 246.0006 15.33452015 19766
STARLINK-36693          
1 67742U 26026X   26170.70674552  .00020450  00000+0  63373-3 0  9999
2 67742  97.2820 223.9184 0001561  95.0699 265.0722 15.33460246 19767
